NORAD_CAT_ID,OBJECT_NAME,OBJECT_TYPE,EPOCH,MEAN_MOTION,ECCENTRICITY,INCLINATION,RA_OF_ASC_NODE,ARG_OF_PERICENTER,MEAN_ANOMALY,BSTAR,MEAN_MOTION_DOT,MEAN_MOTION_DDOT,TLE_LINE0,TLE_LINE1,TLE_LINE2,SEMIMAJOR_AXIS,PERIOD,APOGEE,PERIGEE,DECAYED
52674.0,STARLINK-3936,PAYLOAD,2022-07-12 14:00:01,15.19619596,0.0001678,53.2176,32.3622,51.2969,143.9062,-0.035936,-0.00722387,0.0,0 STARLINK-3936,1 52674U 22053U   22193.58334491 -.00722387  00000-0 -35936-1 0  9998,2 52674  53.2176  32.3622 0001678  51.2969 143.9062 15.19619596  8906,6885.126,94.761,508.147,505.836,0.0
52674.0,STARLINK-3936,PAYLOAD,2022-07-12 22:00:00,15.19108945,0.0001735,53.2175,30.8446,48.9898,170.4494,-0.036418,-0.00721335,0.0,0 STARLINK-3936,1 52674U 22053U   22193.91667824 -.00721335  00000-0 -36418-1 0  9992,2 52674  53.2175  30.8446 0001735  48.9898 170.4494 15.19108945  1302,6886.669,94.792,509.729,507.339,0.0
52674.0,STARLINK-3936,PAYLOAD,2022-07-13 14:00:01,15.18089622,0.0001664,53.2175,27.8077,48.598,217.4771,-0.037555,-0.00722095,0.0,0 STARLINK-3936,1 52674U 22053U   22194.58334491 -.00722095  00000-0 -37555-1 0  9994,2 52674  53.2175  27.8077 0001664  48.5980 217.4771 15.18089622  9056,6889.752,94.856,512.763,510.47,0.0
52674.0,STARLINK-3936,PAYLOAD,2022-07-13 22:00:00,15.17579064,0.0001581,53.2175,26.2937,52.1232,236.3496,-0.038063,-0.00721193,0.0,0 STARLINK-3936,1 52674U 22053U   22194.91667824 -.00721193  00000-0 -38063-1 0  9993,2 52674  53.2175  26.2937 0001581  52.1232 236.3496 15.17579064  1300,6891.297,94.888,514.251,512.072,0.0
52674.0,STARLINK-3936,PAYLOAD,2022-07-14 14:00:01,15.165598,0.000165,53.2175,23.2639,44.5812,286.851,-0.039261,-0.00722307,0.0,0 STARLINK-3936,1 52674U 22053U   22195.58334491 -.00722307  00000-0 -39261-1 0  9997,2 52674  53.2175  23.2639 0001650  44.5812 286.8510 15.16559800  9201,6894.384,94.952,517.387,515.112,0.0
52674.0,STARLINK-3936,PAYLOAD,2022-07-14 22:00:00,15.16049316,0.0001575,53.2175,21.7535,47.4586,304.5329,-0.039808,-0.00721761,0.0,0 STARLINK-3936,1 52674U 22053U   22195.91667824 -.00721761  00000-0 -39808-1 0  9993,2 52674  53.2175  21.7535 0001575  47.4586 304.5329 15.16049316  1300,6895.932,94.984,518.883,516.711,0.0
52674.0,STARLINK-3936,PAYLOAD,2022-07-15 14:00:01,15.15030106,0.0001792,53.2175,18.731,38.0341,353.2399,-0.04106,-0.00723046,0.0,0 STARLINK-3936,1 52674U 22053U   22196.58334491 -.00723046  00000-0 -41060-1 0  9999,2 52674  53.2175  18.7310 0001792  38.0341 353.2399 15.15030106  1307,6899.024,95.048,522.125,519.653,0.0
52674.0,STARLINK-3936,PAYLOAD,2022-07-15 22:00:00,15.14518417,0.0001789,53.2174,17.2239,39.1234,10.8723,-0.041508,-0.0072056,0.0,0 STARLINK-3936,1 52674U 22053U   22196.91667824 -.00720560  00000-0 -41508-1 0  9990,2 52674  53.2174  17.2239 0001789  39.1234  10.8723 15.14518417  9411,6900.578,95.08,523.678,521.2080000000002,0.0
52674.0,STARLINK-3936,PAYLOAD,2022-07-16 14:00:01,15.13499974,0.0001857,53.2175,14.2086,38.6325,46.9685,-0.042878,-0.00723021,0.0,0 STARLINK-3936,1 52674U 22053U   22197.58334491 -.00723021  00000-0 -42878-1 0  9991,2 52674  53.2175  14.2086 0001857  38.6325  46.9685 15.13499974  1302,6903.6730000000025,95.144,526.82,524.256,0.0
52674.0,STARLINK-3936,PAYLOAD,2022-07-16 20:00:01,15.13118299,0.0001842,53.2174,13.081,37.6616,330.6581,-0.043411,-0.00724093,0.0,0 STARLINK-3936,1 52674U 22053U   22197.83334491 -.00724093  00000-0 -43411-1 0  9993,2 52674  53.2174  13.0810 0001842  37.6616 330.6581 15.13118299  9549,6904.834,95.168,527.971,525.427,0.0
52674.0,STARLINK-3936,PAYLOAD,2022-07-16 22:00:00,15.12986876,0.0001834,53.2174,12.705,40.6564,61.8283,-0.043173,-0.00717909,0.0,0 STARLINK-3936,1 52674U 22053U   22197.91667824 -.00717909  00000-0 -43173-1 0  9994,2 52674  53.2174  12.7050 0001834  40.6564  61.8283 15.12986876  1309,6905.234,95.176,528.365,525.8330000000002,0.0
52674.0,STARLINK-3936,PAYLOAD,2022-07-17 14:00:01,15.11969533,0.0001724,53.2176,9.6968,46.6033,87.8097,-0.044714,-0.00722272,0.0,0 STARLINK-3936,1 52674U 22053U   22198.58334491 -.00722272  00000-0 -44714-1 0  9990,2 52674  53.2176   9.6968 0001724  46.6033  87.8097 15.11969533  1300,6908.331,95.24,531.387,529.005,0.0
52674.0,STARLINK-3936,PAYLOAD,2022-07-17 22:00:00,15.11455594,0.0001805,53.2174,8.1967,44.6439,104.8146,-0.044894,-0.00715345,0.0,0 STARLINK-3936,1 52674U 22053U   22198.91667824 -.00715345  00000-0 -44894-1 0  9998,2 52674  53.2174   8.1967 0001805  44.6439 104.8146 15.11455594  9714,6909.897,95.272,533.009,530.515,0.0
52674.0,STARLINK-3936,PAYLOAD,2022-07-18 14:00:01,15.10439152,0.0001805,53.2177,5.1959,46.0861,131.6235,-0.046604,-0.00721432,0.0,0 STARLINK-3936,1 52674U 22053U   22199.58334491 -.00721432  00000-0 -46604-1 0  9998,2 52674  53.2177   5.1959 0001805  46.0861 131.6235 15.10439152  1305,6912.996999999999,95.337,536.11,533.614,0.0
52674.0,STARLINK-3936,PAYLOAD,2022-07-18 22:00:00,15.09925954,0.0001863,53.2174,3.699,44.8319,146.0847,-0.046859,-0.00715564,0.0,0 STARLINK-3936,1 52674U 22053U   22199.91667824 -.00715564  00000-0 -46859-1 0  9995,2 52674  53.2174   3.6990 0001863  44.8319 146.0847 15.09925954  9864,6914.563,95.369,537.716,535.14,0.0
52674.0,STARLINK-3936,PAYLOAD,2022-07-19 14:00:01,15.08917623,0.0001943,53.2177,0.7040000000000001,45.7445,169.773,-0.0080604,-0.00126595,0.0,0 STARLINK-3936,1 52674U 22053U   22200.58334491 -.00126595  00000-0 -80604-2 0  9999,2 52674  53.2177   0.7040 0001943  45.7445 169.7730 15.08917623  9967,6917.643,95.433,540.852,538.164,0.0
52674.0,STARLINK-3936,PAYLOAD,2022-07-19 22:00:00,15.08834232,0.0001812,53.2174,359.2086,42.0957,185.054,0.00034926,5.274e-05,0.0,0 STARLINK-3936,1 52674U 22053U   22200.91667824  .00005274  00000-0  34926-3 0  9990,2 52674  53.2174 359.2086 0001812  42.0957 185.0540 15.08834232  1303,6917.898,95.438,541.0169999999998,538.509,0.0
52674.0,STARLINK-3936,PAYLOAD,2022-07-20 14:00:01,15.08895259,0.0001878,53.2221,356.2077,50.6971,199.5646,-0.0041558,-0.00065923,0.0,0 STARLINK-3936,1 52674U 22053U   22201.58334491 -.00065923  00000-0 -41558-2 0  9992,2 52674  53.2221 356.2077 0001878  50.6971 199.5646 15.08895259  1309,6917.7109999999975,95.434,540.876,538.2769999999998,0.0
52674.0,STARLINK-3936,PAYLOAD,2022-07-20 22:00:01,15.08833924,0.0001923,53.2215,354.7123,44.1824,217.7723,0.0020671,0.00032758,0.0,0 STARLINK-3936,1 52674U 22053U   22201.91668981  .00032758  00000-0  20671-2 0  9994,2 52674  53.2215 354.7123 0001923  44.1824 217.7723 15.08833924  1303,6917.899,95.438,541.094,538.434,0.0
52674.0,STARLINK-3936,PAYLOAD,2022-07-21 06:00:00,15.08820459,0.0001698,53.2215,353.2144,47.9386,225.5601,0.00057084,8.804e-05,0.0,0 STARLINK-3936,1 52674U 22053U   22202.25001157  .00008804  00000-0  57084-3 0  9992,2 52674  53.2215 353.2144 0001698  47.9386 225.5601 15.08820459 10214,6917.94,95.439,540.98,538.63,0.0
52674.0,STARLINK-3936,PAYLOAD,2022-07-21 14:00:01,15.08836805,0.0001758,53.2214,351.7192,47.056,238.0741,-0.0012193,-0.00019639,0.0,0 STARLINK-3936,1 52674U 22053U   22202.58335648 -.00019639  00000-0 -12193-2 0  9994,2 52674  53.2214 351.7192 0001758  47.0560 238.0741 15.08836805  1307,6917.89,95.438,540.971,538.539,0.0
52674.0,STARLINK-3936,PAYLOAD,2022-07-21 22:00:00,15.08820589,0.0001865,53.221,350.2238,41.7995,254.8501,0.0018724,0.00029621,0.0,0 STARLINK-3936,1 52674U 22053U   22202.91667824  .00029621  00000-0  18724-2 0  9991,2 52674  53.2210 350.2238 0001865  41.7995 254.8501 15.08820589  1302,6917.94,95.439,541.095,538.515,0.0
52674.0,STARLINK-3936,PAYLOAD,2022-07-22 06:00:00,15.08820089,0.0001712,53.2211,348.7257,47.4154,260.8365,0.0033839,0.0005394999999999,0.0,0 STARLINK-3936,1 52674U 22053U   22203.25001157  .00053950  00000-0  33839-2 0  9996,2 52674  53.2211 348.7257 0001712  47.4154 260.8365 15.08820089  1307,6917.941,95.439,540.991,538.622,0.0
52674.0,STARLINK-3936,PAYLOAD,2022-07-22 12:00:00,15.08864524,0.0001774999999999,53.2213,347.6041,48.3002,178.6388,-0.0003813999999999,-6.357e-05,0.0,0 STARLINK-3936,1 52674U 22053U   22203.50001157 -.00006357  00000-0 -38140-3 0  9996,2 52674  53.2213 347.6041 0001775  48.3002 178.6388 15.08864524 10403,6917.805,95.436,540.898,538.443,0.0
52674.0,STARLINK-3936,PAYLOAD,2022-07-22 22:00:00,15.08873383,0.0001886999999999,53.2209,345.7348,39.8643,291.6003,-0.0015054,-0.00024189,0.0,0 STARLINK-3936,1 52674U 22053U   22203.91667824 -.00024189  00000-0 -15054-2 0  9991,2 52674  53.2209 345.7348 0001887  39.8643 291.6003 15.08873383  1309,6917.778,95.435,540.9490000000002,538.3380000000002,0.0
52674.0,STARLINK-3936,PAYLOAD,2022-07-23 14:00:01,15.0883962,0.0001931,53.2213,342.7416,45.8477,308.8955,-0.0011224,-0.00018107,0.0,0 STARLINK-3936,1 52674U 22053U   22204.58335648 -.00018107  00000-0 -11224-2 0  9999,2 52674  53.2213 342.7416 0001931  45.8477 308.8955 15.08839620  1302,6917.882,95.438,541.082,538.411,0.0
52674.0,STARLINK-3936,PAYLOAD,2022-07-23 22:00:00,15.08837051,0.0002008,53.2212,341.2458,41.7283,324.5366,0.0011468,0.00018009,0.0,0 STARLINK-3936,1 52674U 22053U   22204.91667824  .00018009  00000-0  11468-2 0  9999,2 52674  53.2212 341.2458 0002008  41.7283 324.5366 15.08837051  1304,6917.889,95.438,541.144,538.365,0.0
52674.0,STARLINK-3936,PAYLOAD,2022-07-24 04:00:00,15.08830207,0.0001865999999999,53.2217,340.1222,46.0455,238.919,0.0017712,0.00028006,0.0,0 STARLINK-3936,1 52674U 22053U   22205.16667824  .00028006  00000-0  17712-2 0  9993,2 52674  53.2217 340.1222 0001866  46.0455 238.9190 15.08830207 10653,6917.91,95.438,541.066,538.484,0.0
52674.0,STARLINK-3936,PAYLOAD,2022-07-24 14:00:01,15.08878958,0.0001932,53.2218,338.2529,44.0255,345.4283,-0.0051296,-0.00081096,0.0,0 STARLINK-3936,1 52674U 22053U   22205.58334491 -.00081096  00000-0 -51296-2 0  9995,2 52674  53.2218 338.2529 0001932  44.0255 345.4283 15.08878958  1306,6917.761,95.435,540.9630000000002,538.29,0.0
